1 41601U 16040C 26162.09355497 .00008426 00000+0 24092-3 0 9991 
2 41601 96.9571 194.1440 0003962 69.8811 290.2860 15.36197638556931 
1 41603U 16040E 26162.25156476 .00002829 00000+0 90770-4 0 9995 
2 41603 97.1484 158.5923 0011539 45.2474 314.9706 15.33066222553909 
1 41727U 16049A 26162.32559876 .00000270 00000+0 95256-4 0 9992 
2 41727 98.4015 170.2002 0001285 98.8764 261.2572 14.42215539517802 
1 41771U 16058B 26162.06384880 .00015178 00000+0 28792-3 0 9996 
2 41771 96.9179 184.0929 0000945 114.3277 245.8073 15.48396131544529 
1 41772U 16058C 26162.10429853 .00007000 00000+0 21249-3 0 9997 
2 41772 97.0478 203.0161 0001680 353.7430 6.3792 15.34383183542817 
1 41773U 16058D 26162.02961746 .00010975 00000+0 25982-3 0 9994 
2 41773 97.0175 184.3567 0005035 83.6751 276.5071 15.41930728544102 
1 41774U 16058E 26162.08425443 .00020338 00000+0 33583-3 0 9990 
2 41774 96.9011 193.1672 0001780 84.5469 275.5988 15.52277835545162 
1 41785U 16059C 26162.25939646 .00000408 00000+0 72068-4 0 9995 
2 41785 97.7755 171.2791 0007810 242.0933 117.9485 14.72270635519708 
1 41787U 16059E 26162.27330812 .00000461 00000+0 88798-4 0 9995 
2 41787 97.8166 161.8164 0027378 222.9992 136.9074 14.67656231518842 
1 41790U 16059H 26162.19414924 .00000864 00000+0 12040-3 0 9990 
2 41790 98.1191 225.8983 0053254 267.3177 92.1938 14.79512737100707 
1 41875U 16073A 26162.22617840 .00000563 00000+0 11957-3 0 9998 
2 41875 98.1257 56.9938 0001458 75.8358 284.3006 14.62771182507951 
1 41877U 16074A 26162.29945993 -.00000082 00000+0 -17301-4 0 9999 
2 41877 98.7526 235.8517 0003364 94.9182 265.2380 14.21614292493460 
1 41948U 17008A 26162.29670969 .00002957 00000+0 14336-3 0 9999 
2 41948 97.4114 221.7122 0003650 256.5749 103.5079 15.19288324516687 
1 42063U 17013A 26162.26343025 -.00000030 00000+0 52558-5 0 9992 
2 42063 98.5689 237.1214 0001186 86.6400 273.4919 14.30814959483792 
1 42767U 17036C 26162.31432616 .00003267 00000+0 15813-3 0 9994 
2 42767 97.4277 222.2136 0002730 345.1869 14.9285 15.19275677497256 
1 42920U 17049A 26162.25997839 .00000111 00000+0 39187-4 0 9991 
2 42920 98.2253 237.7012 0012706 100.6652 259.5974 14.50896594465812 
1 42969U 17064A 26162.06959695 .00000029 00000+0 34596-4 0 9995 
2 42969 98.7924 104.2444 0000990 83.2437 276.8852 14.19517954448690 
1 42987U 17068A 26162.21165584 .00023416 00000+0 31852-3 0 9998 
2 42987 97.4338 310.7847 0000912 87.3027 272.8332 15.57583189482312 
1 42988U 17068B 26162.09777478 .00008111 00000+0 24485-3 0 9995 
2 42988 97.4490 298.8868 0001184 92.1448 267.9930 15.34534332481425 
1 42989U 17068C 26161.94224228 .00012030 00000+0 28943-3 0 9997 
2 42989 97.4412 299.6051 0009116 152.8333 207.3393 15.41406612481791 
1 42990U 17068D 26161.94813068 .00009647 00000+0 27006-3 0 9994 
2 42990 97.4508 298.5116 0001536 97.2803 262.8616 15.36853476481355 
1 42991U 17068E 26161.94154207 .00009719 00000+0 27229-3 0 9995 
2 42991 97.4520 299.4940 0007102 124.6157 235.5758 15.36801863481411 
1 42992U 17068F 26161.95044272 .00008454 00000+0 25855-3 0 9995 
2 42992 97.4555 299.4956 0004106 153.8039 206.3412 15.34102553481366 
1 43111U 18004A 26162.21461576 .00003216 00000+0 15622-3 0 9992 
2 43111 97.4795 221.9071 0000293 292.3489 67.7714 15.19168158466425 
1 43259U 18031A 26162.26689007 .00000619 00000+0 96346-4 0 9998 
2 43259 98.0528 224.8104 0004138 48.3256 311.8307 14.76448577441827 
1 43260U 18031B 26162.24508686 .00000581 00000+0 90902-4 0 9991 
2 43260 98.0525 224.6476 0003823 90.9332 269.2315 14.76460364441816 
1 43262U 18031D 26162.28856050 .00000807 00000+0 12335-3 0 9992 
2 43262 98.0530 224.8809 0002259 89.3102 270.8366 14.76471899441814 
1 43437U 18039A 26162.15852739 .00000077 00000+0 49850-4 0 9992 
2 43437 98.6248 229.7772 0000810 80.6094 279.5178 14.26740030423265 
1 43461U 18043A 26161.89625793 .00000273 00000+0 66302-4 0 9991 
2 43461 98.4566 133.3505 0003033 94.6339 265.5207 14.60601085430770 
1 43484U 18048A 26162.31115733 .00000100 00000+0 21378-4 0 9990 
2 43484 97.8378 225.2128 0011421 186.8445 173.2611 14.76587467432526 
