OBJECT_NAME,OBJECT_ID,EPOCH,MEAN_MOTION,ECCENTRICITY,INCLINATION,RA_OF_ASC_NODE,ARG_OF_PERICENTER,MEAN_ANOMALY,EPHEMERIS_TYPE,CLASSIFICATION_TYPE,NORAD_CAT_ID,ELEMENT_SET_NO,REV_AT_EPOCH,BSTAR,MEAN_MOTION_DOT,MEAN_MOTION_DDOT
SKYSAT-C1,2016-040C,2026-06-11T02:14:43.149408,15.36197638,.00039623,96.9571,194.1440,69.8811,290.2860,0,U,41601,999,55693,.24092222E-3,.8426E-4,0
LAPAN-A3,2016-040E,2026-06-11T06:02:15.195264,15.33066222,.00115394,97.1484,158.5923,45.2474,314.9706,0,U,41603,999,55390,.90770243E-4,.2829E-4,0
GAOFEN-3,2016-049A,2026-06-11T07:48:51.732864,14.42215539,.0001285,98.4015,170.2002,98.8764,261.2572,0,U,41727,999,51780,.95255908E-4,.27E-5,0
SKYSAT-C4,2016-058B,2026-06-11T01:31:56.536320,15.48396131,.00009452,96.9179,184.0929,114.3277,245.8073,0,U,41771,999,54452,.28792031E-3,.15178E-3,0
SKYSAT-C5,2016-058C,2026-06-11T02:30:11.392992,15.34383183,.00016801,97.0478,203.0161,353.7430,6.3792,0,U,41772,999,54281,.21248584E-3,.7E-4,0
SKYSAT-C2,2016-058D,2026-06-11T00:42:38.948544,15.41930728,.00050355,97.0175,184.3567,83.6751,276.5071,0,U,41773,999,54410,.25981546E-3,.10975E-3,0
SKYSAT-C3,2016-058E,2026-06-11T02:01:19.582752,15.52277835,.00017805,96.9011,193.1672,84.5469,275.5988,0,U,41774,999,54516,.33582821E-3,.20338E-3,0
ALSAT-1B,2016-059C,2026-06-11T06:13:31.854144,14.72270635,.00078106,97.7755,171.2791,242.0933,117.9485,0,U,41785,999,51970,.72067798E-4,.408E-5,0
PATHFINDER 1,2016-059E,2026-06-11T06:33:33.821568,14.67656231,.00273788,97.8166,161.8164,222.9992,136.9074,0,U,41787,999,51884,.88798238E-4,.461E-5,0
SCATSAT 1,2016-059H,2026-06-11T04:39:34.494336,14.79512737,.00532542,98.1191,225.8983,267.3177,92.1938,0,U,41790,999,10070,.12039841E-3,.864E-5,0
GOKTURK 1A,2016-073A,2026-06-11T05:25:41.813760,14.62771182,.00014587,98.1257,56.9938,75.8358,284.3006,0,U,41875,999,50795,.11956662E-3,.563E-5,0
RESOURCESAT-2A,2016-074A,2026-06-11T07:11:13.337952,14.21614292,.00033646,98.7526,235.8517,94.9182,265.2380,0,U,41877,999,49346,-.17301034E-4,-.82E-6,0
CARTOSAT-2D,2017-008A,2026-06-11T07:07:15.717216,15.19288324,.00036504,97.4114,221.7122,256.5749,103.5079,0,U,41948,999,51668,.14335882E-3,.2957E-4,0
SENTINEL-2B,2017-013A,2026-06-11T06:19:20.373600,14.30814959,.00011862,98.5689,237.1214,86.6400,273.4919,0,U,42063,999,48379,.5255787E-5,-.3E-6,0
CARTOSAT-2E,2017-036C,2026-06-11T07:32:37.780224,15.19275677,.00027307,97.4277,222.2136,345.1869,14.9285,0,U,42767,999,49725,.15812563E-3,.3267E-4,0
FORMOSAT-5,2017-049A,2026-06-11T06:14:22.132896,14.50896594,.00127062,98.2253,237.7012,100.6652,259.5974,0,U,42920,999,46581,.39186543E-4,.111E-5,0
SENTINEL-5P,2017-064A,2026-06-11T01:40:13.176480,14.19517954,.00009908,98.7924,104.2444,83.2437,276.8852,0,U,42969,999,44869,.34596242E-4,.29E-6,0
SKYSAT-C11,2017-068A,2026-06-11T05:04:47.064576,15.57583189,.00009125,97.4338,310.7847,87.3027,272.8332,0,U,42987,999,48231,.31852487E-3,.23416E-3,0
SKYSAT-C10,2017-068B,2026-06-11T02:20:47.740992,15.34534332,.00011848,97.4490,298.8868,92.1448,267.9930,0,U,42988,999,48142,.24484501E-3,.8111E-4,0
SKYSAT-C9,2017-068C,2026-06-10T22:36:49.732992,15.41406612,.00091164,97.4412,299.6051,152.8333,207.3393,0,U,42989,999,48179,.28942773E-3,.1203E-3,0
SKYSAT-C8,2017-068D,2026-06-10T22:45:18.490752,15.36853476,.00015362,97.4508,298.5116,97.2803,262.8616,0,U,42990,999,48135,.27006031E-3,.9647E-4,0
SKYSAT-C7,2017-068E,2026-06-10T22:35:49.234848,15.36801863,.00071023,97.4520,299.4940,124.6157,235.5758,0,U,42991,999,48141,.27228925E-3,.9719E-4,0
SKYSAT-C6,2017-068F,2026-06-10T22:48:38.251008,15.34102553,.00041064,97.4555,299.4956,153.8039,206.3412,0,U,42992,999,48136,.25854627E-3,.8454E-4,0
CARTOSAT-2F,2018-004A,2026-06-11T05:09:02.801664,15.19168158,.00002939,97.4795,221.9071,292.3489,67.7714,0,U,43111,999,46642,.15622201E-3,.3216E-4,0
GAOFEN-1 02,2018-031A,2026-06-11T06:24:19.302048,14.76448577,.00041385,98.0528,224.8104,48.3256,311.8307,0,U,43259,999,44182,.96345517E-4,.619E-5,0
GAOFEN-1 03,2018-031B,2026-06-11T05:52:55.504704,14.76460364,.00038239,98.0525,224.6476,90.9332,269.2315,0,U,43260,999,44181,.90902383E-4,.581E-5,0
GAOFEN-1 04,2018-031D,2026-06-11T06:55:31.627200,14.76471899,.00022595,98.0530,224.8809,89.3102,270.8366,0,U,43262,999,44181,.12335113E-3,.807E-5,0
SENTINEL-3B,2018-039A,2026-06-11T03:48:16.766496,14.26740030,.00008105,98.6248,229.7772,80.6094,279.5178,0,U,43437,999,42326,.49849941E-4,.77E-6,0
GAOFEN-5 01,2018-043A,2026-06-10T21:30:36.685152,14.60601085,.00030331,98.4566,133.3505,94.6339,265.5207,0,U,43461,999,43077,.66302018E-4,.273E-5,0
GAOFEN-6,2018-048A,2026-06-11T07:28:03.993312,14.76587467,.00114214,97.8378,225.2128,186.8445,173.2611,0,U,43484,999,43252,.21377875E-4,.1E-5,0
